#aV2021 12 29  0  0  0.00000000     288 DD+AD WGS84 FIT  NGA
## 2190 259200.00000000   300.00000000 59577 0.0000000000000
+   32     1  2  3  4  5  6  7  8  9 10 11 12 13 14 15 16 17
+         18 19 20 21 22 23 24 25 26 27 28 29 30 31 32  0  0
+          0  0  0  0  0  0  0  0  0  0  0  0  0  0  0  0  0
+          0  0  0  0  0  0  0  0  0  0  0  0  0  0  0  0  0
+          0  0  0  0  0  0  0  0  0  0  0  0  0  0  0  0  0
++         2  2  2  2  2  2  2  2  2  2  2  2  2  2  2  2  2
++         2  2  2  2  2  2  2  2  2  2  2  2  2  2  2  0  0
++         0  0  0  0  0  0  0  0  0  0  0  0  0  0  0  0  0
++         0  0  0  0  0  0  0  0  0  0  0  0  0  0  0  0  0
++         0  0  0  0  0  0  0  0  0  0  0  0  0  0  0  0  0
%c cc cc ccc ccc cccc cccc cccc cccc ccccc ccccc ccccc ccccc
%c cc cc ccc ccc cccc cccc cccc cccc ccccc ccccc ccccc ccccc
%f  0.0000000  0.000000000  0.00000000000  0.000000000000000
%f  0.0000000  0.000000000  0.00000000000  0.000000000000000
%i    0    0    0    0      0      0      0      0         0
%i    0    0    0    0      0      0      0      0         0
/*      NGA, ST. LOUIS,MO.                                  
/*   EPHEMERIS COMPUTED FROM 2 DAYS OF DATA                 
/*   EPOCHA v7 SMOOTHER                                     
/*   G2139 IERS2010 SATIGS SATAPC                           
*  2021 12 29 12 50  0.00000000
P  1 -13439.794297  18860.816540  12408.773823    471.254639                    
V  1   2228.519197 -16255.424032  26864.869938     -0.099970                    
P  2  14623.599441   2394.403426 -21382.510244   -647.159745                    
V  2  -4857.586093  28322.150815    -45.212054     -0.011167                    
P  3 -20903.822465  13017.229456  -9920.665834    -58.223364                    
V  3 -12601.287606   1270.259876  28613.809758     -0.136088                    
P  4 -11203.001954  10304.728541 -21765.278016   -197.233212                    
V  4 -19208.076630 -19874.413620    400.924940      0.015146                    
P  5  25734.234118  -4531.957682  -5350.676271    -66.055794                    
V  5  -5406.930252   4557.575275 -30656.065292     -0.013060                    
P  6   7174.770068  18625.285712 -17420.172662    155.838495                    
V  6  -6729.986574  21221.682417  19900.414631      0.104858                    
P  7  -4829.855293  25761.298310   2418.208471    296.285622                    
V  7  -4077.193955   1709.365903 -31656.183974      0.040734                    
P  8 -18998.539836     11.136084  18682.491910    -49.985745                    
V  8 -16486.426585 -16964.607671 -16409.265197     -0.015038                    
P  9    125.143867  18578.985067 -19042.349678   -359.384277                    
V  9 -18602.998262 -15324.957967 -15163.351312      0.009359                    
P 10  -7138.705445 -13484.417024  21895.469317   -280.318031                    
V 10  26304.713896  -7753.599872   3536.242058     -0.092412                    
P 11  14240.879489   5367.239600 -21772.793791      5.928107                    
V 11  -8295.644216  26358.214800   1057.116880     -0.330278                    
P 12  22917.615389 -10599.496918  -8266.729421   -147.905016                    
V 12  10438.675262    214.695775  29719.303331     -0.056208                    
P 13  20080.415925   8837.440000  14926.879828    236.930338                    
V 13  10436.709570  16159.635270 -23212.366699      0.059127                    
P 14   6102.423250  14237.409941  21575.763815    -62.771979                    
V 14 -26585.908909   6723.411764   3022.310031     -0.057921                    
P 15  18940.874505  -2704.279124  18146.872597    -95.553306                    
V 15  17950.957229  15836.268189 -15698.641109      0.028434                    
P 16 -25581.047186   -816.978116  -8204.023527   -447.771761                    
V 16   9394.585087  -3718.671534 -29411.796640     -0.057258                    
P 17  11414.587987  22100.663710   9699.048947    554.145364                    
V 17  -9288.149952  -7321.491541  28964.159825      0.051340                    
P 18   5098.335229 -25866.925609   2722.752258    270.871279                    
V 18   3407.924333  -2666.461171 -31780.830070     -0.069492                    
P 19  16824.940004  20661.437385    509.751874     98.547491                    
V 19  -2227.247208    611.536829  32026.836338      0.049833                    
P 20  21921.398294   1709.457511 -14724.135168    517.417193                    
V 20 -15993.842234  10296.889232 -22888.120887     -0.001748                    
P 21 -15581.830999   9911.639610  19548.112814    154.911041                    
V 21   2455.830814 -23513.988903  14984.141783      0.008962                    
P 22 -24314.877857  10361.419986   -619.095965   -430.042151                    
V 22  -2324.248365  -3077.973911  31370.816232      0.089293                    
P 23   5917.037439 -16354.146764  20032.003076     16.713623                    
V 23  24624.719908  -6633.281784 -12767.130092     -0.039983                    
P 24  14352.259730 -15440.154201  15618.879735    276.479140                    
V 24   -695.248204  20780.332125  21211.228067      0.009894                    
P 25  13132.708738 -16047.125569 -16709.937128    262.993681                    
V 25  20533.614008  -3953.034038  20544.489149      0.056630                    
P 26 -17909.754838  -7899.748323 -18158.321635    169.507019                    
V 26  21093.875257  -8996.133143 -16654.016061      0.034986                    
P 27 -21802.195460 -10244.625782  11422.674268     34.845935                    
V 27  -9268.352588 -11472.004192 -27150.374717      0.261368                    
P 28  13768.232884  11415.321772  20094.735478    433.233322                    
V 28 -23789.182486   5546.857696  13727.372208     -0.078875                    
P 29   4334.748607 -15989.428397 -20789.210930   -460.372254                    
V 29  18033.462119  19096.953742 -11003.971451     -0.049204                    
P 30   2063.671339  23897.517804  11206.928085   -502.919799                    
V 30  -6858.255533  12923.266020 -26692.029305     -0.027778                    
P 31  -9214.523488 -16367.679115 -18708.605073   -157.379430                    
V 31   7985.610133 -22378.111543  16210.604020     -0.018631                    
P 32 -15743.757978 -20722.622040   5905.782273    -42.243750                    
V 32   7117.896986   3125.825227  30376.655976     -0.057305                    
EOF
